OBJECT_NAME,OBJECT_ID,EPOCH,MEAN_MOTION,ECCENTRICITY,INCLINATION,RA_OF_ASC_NODE,ARG_OF_PERICENTER,MEAN_ANOMALY,EPHEMERIS_TYPE,CLASSIFICATION_TYPE,NORAD_CAT_ID,ELEMENT_SET_NO,REV_AT_EPOCH,BSTAR,MEAN_MOTION_DOT,MEAN_MOTION_DDOT
GSAT-10,2012-051B,2026-07-08T14:05:37.162752,1.00268990,.00077538,0.0370,245.6491,209.8848,125.3828,0,U,38779,999,5031,0,-.149E-5,0
INTELSAT 23 (IS-23),2012-057A,2026-07-08T18:34:51.426912,1.00270303,.00003796,0.0125,26.7213,186.9573,298.7621,0,U,38867,999,5017,0,-.27E-5,0
BEIDOU-2 G6,2012-059A,2026-07-08T22:06:07.388640,1.00268620,.00089268,4.4729,73.2936,330.1279,298.9370,0,U,38953,999,5012,0,-.164E-5,0
LUCH-5B,2012-061A,2026-07-08T20:07:14.615040,1.00271476,.00035884,10.5272,49.6624,141.6093,21.0783,0,U,38977,999,4982,0,-.131E-5,0
YAMAL 300K,2012-061B,2026-07-08T16:16:51.007296,1.00271919,.0000447,0.0071,324.2105,286.6401,102.9436,0,U,38978,999,4984,0,.86E-6,0
STAR ONE C3,2012-062A,2026-07-08T20:11:09.903840,1.00272425,.00022402,0.0189,33.7187,89.8879,30.9904,0,U,38991,999,4998,0,-.235E-5,0
EUTELSAT 21B,2012-062B,2026-07-08T20:57:38.465568,1.00271139,.00032278,0.0645,0.5568,107.6615,154.5892,0,U,38992,999,5004,0,.144E-5,0
ECHOSTAR 16,2012-065A,2026-07-08T20:14:54.544704,1.00270969,.00021495,0.0164,35.3461,70.7858,62.8954,0,U,39008,999,4986,0,-.268E-5,0
ZHONGXING-12,2012-067A,2026-07-08T20:57:30.718944,1.00270431,.00028989,0.0198,106.7971,354.3559,227.5452,0,U,39017,999,4972,0,-.192E-5,0
EUTELSAT 70B,2012-069A,2026-07-08T20:36:38.649888,1.00271078,.000361,0.0623,346.4890,120.8009,199.1737,0,U,39020,999,4972,0,-.29E-6,0
YAMAL 402,2012-070A,2026-07-08T15:40:21.116352,1.00272349,.0003676,1.3167,83.8948,22.4133,110.2807,0,U,39022,999,4961,0,.99E-6,0
SKYNET 5D,2012-075A,2026-07-08T20:20:38.704416,1.00274067,.00036686,0.0704,342.9357,138.5634,163.2305,0,U,39034,999,4937,0,.113E-5,0
MEXSAT 3,2012-075B,2026-07-08T13:09:15.912576,1.00275538,.00007342,0.0342,263.0244,184.7886,281.2045,0,U,39035,999,726,0,-.11E-6,0
TDRS 11,2013-004A,2026-07-08T21:25:35.527584,1.00277182,.0004773,3.5525,31.6068,28.7159,13.6127,0,U,39070,999,4691,0,.92E-6,0
AMAZONAS 3,2013-006A,2026-07-08T19:27:32.618016,1.00268512,.00032889,0.0585,235.2161,277.8043,4.5982,0,U,39078,999,4513,0,-.268E-5,0
AZERSPACE 1,2013-006B,2026-07-08T20:45:46.844064,1.00272885,.00018946,0.0299,282.0558,224.7175,137.4794,0,U,39079,999,4902,0,.147E-5,0
SBIRS GEO-2 (USA 241),2013-011A,2026-07-08T11:44:58.849728,1.00271537,.00020362,4.5345,52.5133,46.5749,313.7905,0,U,39120,999,4874,0,-.275E-5,0
EUTELSAT 117 WEST A,2013-012A,2026-07-08T16:38:48.124320,1.00271699,.00027098,0.0104,18.7153,94.4149,306.4006,0,U,39122,999,4864,0,.2E-7,0
ANIK G1,2013-014A,2026-07-08T21:44:41.196768,1.00271249,.00016999,0.0517,261.6903,216.2564,27.7706,0,U,39127,999,4847,0,-.6E-6,0
ZHONGXING-11,2013-020A,2026-07-08T21:19:21.921888,1.00271893,.00024207,0.0199,34.1905,48.8747,261.5283,0,U,39157,999,4811,0,-.276E-5,0
EUTELSAT 7B,2013-022A,2026-07-08T20:34:31.105344,1.00271520,.00037484,0.0638,358.9883,47.7565,195.6783,0,U,39163,999,4816,0,.62E-6,0
WGS F5 (USA 243),2013-024A,2026-07-08T18:34:58.915200,1.00272604,.00005711,0.0220,27.2266,210.7174,275.0217,0,U,39168,999,4739,0,0,0
SES-6,2013-026A,2026-07-08T20:21:01.458720,1.00269807,.00023934,0.0161,10.8366,92.6964,88.0090,0,U,39172,999,4794,0,-.247E-5,0
IRNSS-1A,2013-034A,2026-07-07T17:25:54.891264,1.00281056,.00175755,35.7641,63.5758,183.3679,355.4225,0,U,39199,999,4757,0,.61E-6,0
MUOS-2,2013-036A,2026-07-08T21:21:35.911008,1.00271332,.00522424,5.0375,45.5542,176.4683,197.1584,0,U,39206,999,4741,0,-.3E-7,0
ALPHASAT,2013-038A,2026-07-08T20:57:38.465568,1.00269288,.00021301,2.9987,1.1356,130.6448,134.3249,0,U,39215,999,4423,0,.146E-5,0
INSAT-3D,2013-038B,2026-07-08T21:09:22.082976,1.00271695,.00005133,1.9789,82.2705,69.6620,221.7652,0,U,39216,999,4729,0,-.326E-5,0
WGS F6 (USA 244),2013-041A,2026-07-08T18:11:23.676288,1.00270591,.00016891,0.0192,37.4169,191.9029,195.0640,0,U,39222,999,4627,0,.103E-5,0
ES'HAIL 1,2013-044A,2026-07-08T20:57:38.465568,1.00272689,.00022384,0.0466,4.8012,106.3216,155.6029,0,U,39233,999,4684,0,.158E-5,0
GSAT-7,2013-044B,2026-07-08T21:59:18.568032,1.00271269,.0003063,0.1339,90.2153,178.2201,62.2073,0,U,39234,999,4547,0,-.62E-6,0
AMOS-4,2013-045A,2026-07-08T21:04:27.403680,1.00271358,.00023321,0.0501,258.8193,176.3719,232.7532,0,U,39237,999,4717,0,.22E-6,0
AEHF-3 (USA 246),2013-050A,2026-07-08T14:43:34.513824,1.00269418,.00882946,5.3453,66.9896,187.6938,128.5257,0,U,39256,999,4586,0,.4E-6,0
