GSAT-10                 
1 38779U 12051B   26189.58723568 -.00000149  00000+0  00000+0 0  9996
2 38779   0.0370 245.6491 0007753 209.8848 125.3828  1.00268990 50311
INTELSAT 23 (IS-23)     
1 38867U 12057A   26189.77420633 -.00000270  00000+0  00000+0 0  9993
2 38867   0.0125  26.7213 0000379 186.9573 298.7621  1.00270303 50175
BEIDOU-2 G6             
1 38953U 12059A   26189.92091885 -.00000164  00000+0  00000+0 0  9993
2 38953   4.4729  73.2936 0008926 330.1279 298.9370  1.00268620 50127
LUCH-5B                 
1 38977U 12061A   26189.83836360 -.00000131  00000+0  00000+0 0  9991
2 38977  10.5272  49.6624 0003588 141.6093  21.0783  1.00271476 49824
YAMAL 300K              
1 38978U 12061B   26189.67836814  .00000086  00000+0  00000+0 0  9996
2 38978   0.0071 324.2105 0000447 286.6401 102.9436  1.00271919 49844
STAR ONE C3             
1 38991U 12062A   26189.84108685 -.00000235  00000+0  00000+0 0  9996
2 38991   0.0189  33.7187 0002240  89.8879  30.9904  1.00272425 49984
EUTELSAT 21B            
1 38992U 12062B   26189.87336187  .00000144  00000+0  00000+0 0  9998
2 38992   0.0645   0.5568 0003227 107.6615 154.5892  1.00271139 50049
ECHOSTAR 16             
1 39008U 12065A   26189.84368686 -.00000268  00000+0  00000+0 0  9994
2 39008   0.0164  35.3461 0002149  70.7858  62.8954  1.00270969 49861
ZHONGXING-12            
1 39017U 12067A   26189.87327221 -.00000192  00000+0  00000+0 0  9995
2 39017   0.0198 106.7971 0002898 354.3559 227.5452  1.00270431 49729
EUTELSAT 70B            
1 39020U 12069A   26189.85878067 -.00000029  00000+0  00000+0 0  9997
2 39020   0.0623 346.4890 0003610 120.8009 199.1737  1.00271078 49726
YAMAL 402               
1 39022U 12070A   26189.65302218  .00000099  00000+0  00000+0 0  9995
2 39022   1.3167  83.8948 0003676  22.4133 110.2807  1.00272349 49610
SKYNET 5D               
1 39034U 12075A   26189.84767019  .00000113  00000+0  00000+0 0  9995
2 39034   0.0704 342.9357 0003668 138.5634 163.2305  1.00274067 49378
MEXSAT 3                
1 39035U 12075B   26189.54810084 -.00000011  00000+0  00000+0 0  9992
2 39035   0.0342 263.0244 0000734 184.7886 281.2045  1.00275538  7266
TDRS 11                 
1 39070U 13004A   26189.89277231  .00000092  00000+0  00000+0 0  9991
2 39070   3.5525  31.6068 0004773  28.7159  13.6127  1.00277182 46916
AMAZONAS 3              
1 39078U 13006A   26189.81079419 -.00000268  00000+0  00000+0 0  9997
2 39078   0.0585 235.2161 0003288 277.8043   4.5982  1.00268512 45135
AZERSPACE 1             
1 39079U 13006B   26189.86512551  .00000147  00000+0  00000+0 0  9997
2 39079   0.0299 282.0558 0001894 224.7175 137.4794  1.00272885 49023
SBIRS GEO-2 (USA 241)   
1 39120U 13011A   26189.48957002 -.00000275  00000+0  00000+0 0  9995
2 39120   4.5345  52.5133 0002036  46.5749 313.7905  1.00271537 48740
EUTELSAT 117 WEST A     
1 39122U 13012A   26189.69361255  .00000002  00000+0  00000+0 0  9997
2 39122   0.0104  18.7153 0002709  94.4149 306.4006  1.00271699 48644
ANIK G1                 
1 39127U 13014A   26189.90603237 -.00000060  00000+0  00000+0 0  9992
2 39127   0.0517 261.6903 0001699 216.2564  27.7706  1.00271249 48473
ZHONGXING-11            
1 39157U 13020A   26189.88844817 -.00000276  00000+0  00000+0 0  9999
2 39157   0.0199  34.1905 0002420  48.8747 261.5283  1.00271893 48116
EUTELSAT 7B             
1 39163U 13022A   26189.85730446  .00000062  00000+0  00000+0 0  9999
2 39163   0.0638 358.9883 0003748  47.7565 195.6783  1.00271520 48167
WGS F5 (USA 243)        
1 39168U 13024A   26189.77429300  .00000000  00000+0  00000+0 0  9993
2 39168   0.0220  27.2266 0000571 210.7174 275.0217  1.00272604 47392
SES-6                   
1 39172U 13026A   26189.84793355 -.00000247  00000+0  00000+0 0  9996
2 39172   0.0161  10.8366 0002393  92.6964  88.0090  1.00269807 47941
IRNSS-1A                
1 39199U 13034A   26188.72632976  .00000061  00000+0  00000+0 0  9994
2 39199  35.7641  63.5758 0017575 183.3679 355.4225  1.00281056 47577
MUOS-2                  
1 39206U 13036A   26189.88999897 -.00000003  00000+0  00000+0 0  9998
2 39206   5.0375  45.5542 0052242 176.4683 197.1584  1.00271332 47417
ALPHASAT                
1 39215U 13038A   26189.87336187  .00000146  00000+0  00000+0 0  9993
2 39215   2.9987   1.1356 0002130 130.6448 134.3249  1.00269288 44230
INSAT-3D                
1 39216U 13038B   26189.88150559 -.00000326  00000+0  00000+0 0  9993
2 39216   1.9789  82.2705 0000513  69.6620 221.7652  1.00271695 47297
WGS F6 (USA 244)        
1 39222U 13041A   26189.75791292  .00000103  00000+0  00000+0 0  9997
2 39222   0.0192  37.4169 0001689 191.9029 195.0640  1.00270591 46276
ES'HAIL 1               
1 39233U 13044A   26189.87336187  .00000158  00000+0  00000+0 0  9993
2 39233   0.0466   4.8012 0002238 106.3216 155.6029  1.00272689 46842
GSAT-7                  
1 39234U 13044B   26189.91618713 -.00000062  00000+0  00000+0 0  9992
2 39234   0.1339  90.2153 0003063 178.2201  62.2073  1.00271269 45470
AMOS-4                  
1 39237U 13045A   26189.87809495  .00000022  00000+0  00000+0 0  9995
2 39237   0.0501 258.8193 0002332 176.3719 232.7532  1.00271358 47172
AEHF-3 (USA 246)        
1 39256U 13050A   26189.61359391  .00000040  00000+0  00000+0 0  9999
2 39256   5.3453  66.9896 0088294 187.6938 128.5257  1.00269418 45868
